NORAD_CAT_ID,OBJECT_NAME,OBJECT_TYPE,EPOCH,MEAN_MOTION,ECCENTRICITY,INCLINATION,RA_OF_ASC_NODE,ARG_OF_PERICENTER,MEAN_ANOMALY,BSTAR,MEAN_MOTION_DOT,MEAN_MOTION_DDOT,TLE_LINE0,TLE_LINE1,TLE_LINE2,SEMIMAJOR_AXIS,PERIOD,APOGEE,PERIGEE,DECAYED
52661.0,STARLINK-4042,PAYLOAD,2023-11-08 21:40:01,15.08860322,0.0001127,53.219,17.9456,129.3837,230.7255,0.00055665,8.587e-05,0.0,0 STARLINK-4042,1 52661U 22053F   23312.90279713  .00008587  00000-0  55665-3 0  9999,2 52661  53.2190  17.9456 0001127 129.3837 230.7255 15.08860322 82456,6917.818,95.436,540.463,538.904,0.0
52661.0,STARLINK-4042,PAYLOAD,2023-11-09 11:58:29,15.08861441,0.000146,53.2184,15.2693,99.3741,260.7417,0.00030521,4.576e-05,0.0,0 STARLINK-4042,1 52661U 22053F   23313.49895301  .00004576  00000-0  30521-3 0  9999,2 52661  53.2184  15.2693 0001460  99.3741 260.7417 15.08861441 82549,6917.815,95.436,540.69,538.67,0.0
52661.0,STARLINK-4042,PAYLOAD,2023-11-09 21:30:48,15.08854752,0.0001515,53.2198,13.4832,84.3495,275.7669,9.641e-05,1.247e-05,0.0,0 STARLINK-4042,1 52661U 22053F   23313.89639129  .00001247  00000-0  96410-4 0  9999,2 52661  53.2198  13.4832 0001515  84.3495 275.7669 15.08854752 82609,6917.835,95.437,540.748,538.652,0.0
52661.0,STARLINK-4042,PAYLOAD,2023-11-10 10:13:53,15.08846298,0.0001291,53.2199,11.1033,85.2455,274.8685,-0.00012152,-2.222e-05,0.0,0 STARLINK-4042,1 52661U 22053F   23314.42631358 -.00002222  00000-0 -12152-3 0  9991,2 52661  53.2199  11.1033 0001291  85.2455 274.8685 15.08846298 82687,6917.861,95.437,540.619,538.833,0.0
52661.0,STARLINK-4042,PAYLOAD,2023-11-10 21:21:34,15.0885224,0.0001339,53.218,9.0201,92.8621,267.2524,-4.2291e-05,-9.61e-06,0.0,0 STARLINK-4042,1 52661U 22053F   23314.88998651 -.00000961  00000-0 -42291-4 0  9999,2 52661  53.2180   9.0201 0001339  92.8621 267.2524 15.08852240 82752,6917.843,95.437,540.634,538.782,0.0
52661.0,STARLINK-4042,PAYLOAD,2023-11-11 10:04:40,15.08850055,0.0001645,53.2192,6.6389,98.1006,262.0172,1.087e-05,-1.15e-06,0.0,0 STARLINK-4042,1 52661U 22053F   23315.41990759 -.00000115  00000-0  10870-4 0  9998,2 52661  53.2192   6.6389 0001645  98.1006 262.0172 15.08850055 82834,6917.85,95.437,540.853,538.577,0.0
52661.0,STARLINK-4042,PAYLOAD,2023-11-12 03:33:55,15.08832406,0.0001672,53.2187,3.3677,101.5498,258.5682,0.00018491,2.655e-05,0.0,0 STARLINK-4042,1 52661U 22053F   23316.14855669  .00002655  00000-0  18491-3 0  9995,2 52661  53.2187   3.3677 0001672 101.5498 258.5682 15.08832406 82944,6917.904,95.438,540.925,538.612,0.0
52661.0,STARLINK-4042,PAYLOAD,2023-11-12 09:55:27,15.0883917,0.0001716,53.2195,2.1784,103.3255,256.7928,8.1882e-05,1.015e-05,0.0,0 STARLINK-4042,1 52661U 22053F   23316.41351367  .00001015  00000-0  81882-4 0  9995,2 52661  53.2195   2.1784 0001716 103.3255 256.7928 15.08839170 82981,6917.883,95.438,540.935,538.561,0.0
52661.0,STARLINK-4042,PAYLOAD,2023-11-13 03:24:41,15.08844359,0.0001689,53.2195,358.9077,103.5978,256.5203,0.0001031,1.353e-05,0.0,0 STARLINK-4042,1 52661U 22053F   23317.14214900  .00001353  00000-0  10310-3 0  9999,2 52661  53.2195 358.9077 0001689 103.5978 256.5203 15.08844359 83093,6917.867,95.437,540.9,538.564,0.0
52661.0,STARLINK-4042,PAYLOAD,2023-11-13 12:56:59,15.08857013,0.0001591,53.2182,357.1256,90.8253,269.2922,0.00036431,5.517e-05,0.0,0 STARLINK-4042,1 52661U 22053F   23317.53958277  .00005517  00000-0  36431-3 0  9992,2 52661  53.2182 357.1256 0001591  90.8253 269.2922 15.08857013 83152,6917.828,95.436,540.794,538.593,0.0
52661.0,STARLINK-4042,PAYLOAD,2023-11-13 19:18:33,15.08836532,0.0001716,53.2186,355.9356,93.5147,266.6041,-3.6939e-06,-3.47e-06,0.0,0 STARLINK-4042,1 52661U 22053F   23317.80455248 -.00000347  00000-0 -36939-5 0  9995,2 52661  53.2186 355.9356 0001716  93.5147 266.6041 15.08836532 83194,6917.891,95.438,540.943,538.569,0.0
52661.0,STARLINK-4042,PAYLOAD,2023-11-14 09:37:01,15.08840181,0.0001612,53.2183,353.2609,95.9228,264.1948,2.0605e-05,4e-07,0.0,0 STARLINK-4042,1 52661U 22053F   23318.40071109  .00000040  00000-0  20605-4 0  9992,2 52661  53.2183 353.2609 0001612  95.9228 264.1948 15.08840181 83288,6917.88,95.438,540.86,538.63,0.0
52661.0,STARLINK-4042,PAYLOAD,2023-11-14 19:09:20,15.08842038,0.0001589,53.218,351.4769,95.0336,265.0837,7.1826e-05,8.55e-06,0.0,0 STARLINK-4042,1 52661U 22053F   23318.79815114  .00000855  00000-0  71826-4 0  9991,2 52661  53.2180 351.4769 0001589  95.0336 265.0837 15.08842038 83343,6917.874,95.437,540.838,538.64,0.0
52661.0,STARLINK-4042,PAYLOAD,2023-11-15 01:30:52,15.08838684,0.000166,53.2186,350.2875,96.5921,263.526,1.9803e-05,2.7e-07,0.0,0 STARLINK-4042,1 52661U 22053F   23319.06311224  .00000027  00000-0  19803-4 0  9993,2 52661  53.2186 350.2875 0001660  96.5921 263.5260 15.08838684 83389,6917.884,95.438,540.898,538.601,0.0
52661.0,STARLINK-4042,PAYLOAD,2023-11-15 09:27:48,15.08838535,0.0001717,53.219,348.8004,95.2775,264.8413,2.2746e-05,7.4e-07,0.0,0 STARLINK-4042,1 52661U 22053F   23319.39431390  .00000074  00000-0  22746-4 0  9998,2 52661  53.2190 348.8004 0001717  95.2775 264.8413 15.08838535 83432,6917.885,95.438,540.938,538.562,0.0
52661.0,STARLINK-4042,PAYLOAD,2023-11-15 19:00:07,15.08836582,0.0001661,53.2186,347.016,90.9853,269.1329,0.00010642,1.406e-05,0.0,0 STARLINK-4042,1 52661U 22053F   23319.79175687  .00001406  00000-0  10642-3 0  9997,2 52661  53.2186 347.0160 0001661  90.9853 269.1329 15.08836582 83498,6917.891,95.438,540.905,538.607,0.0
52661.0,STARLINK-4042,PAYLOAD,2023-11-16 01:21:40,15.08836059,0.0001836,53.2192,345.826,91.7225,268.3977,0.00015634,2.201e-05,0.0,0 STARLINK-4042,1 52661U 22053F   23320.05671902  .00002201  00000-0  15634-3 0  9999,2 52661  53.2192 345.8260 0001836  91.7225 268.3977 15.08836059 83532,6917.892,95.438,541.028,538.487,0.0
52661.0,STARLINK-4042,PAYLOAD,2023-11-16 09:18:36,15.08836048,0.0001821,53.2194,344.3391,96.2925,263.8274,0.00014311,1.99e-05,0.0,0 STARLINK-4042,1 52661U 22053F   23320.38792035  .00001990  00000-0  14311-3 0  9991,2 52661  53.2194 344.3391 0001821  96.2925 263.8274 15.08836048 83587,6917.892,95.438,541.017,538.498,0.0
52661.0,STARLINK-4042,PAYLOAD,2023-11-17 07:34:00,15.08844102,0.0001659,53.2184,340.1759,88.7284,271.3899,0.00019544,2.824e-05,0.0,0 STARLINK-4042,1 52661U 22053F   23321.31527846  .00002824  00000-0  19544-3 0  9991,2 52661  53.2184 340.1759 0001659  88.7284 271.3899 15.08844102 83724,6917.868,95.437,540.881,538.585,0.0
52661.0,STARLINK-4042,PAYLOAD,2023-11-18 01:03:14,15.08836922,0.0001628,53.2182,336.9046,90.8656,269.2522,0.00015253,2.14e-05,0.0,0 STARLINK-4042,1 52661U 22053F   23322.04392284  .00002140  00000-0  15253-3 0  9992,2 52661  53.2182 336.9046 0001628  90.8656 269.2522 15.08836922 83839,6917.89,95.438,540.881,538.629,0.0
52661.0,STARLINK-4042,PAYLOAD,2023-11-18 07:24:47,15.08839968,0.0001619,53.2182,335.7152,91.3745,268.7432,9.8147e-05,1.274e-05,0.0,0 STARLINK-4042,1 52661U 22053F   23322.30888180  .00001274  00000-0  98147-4 0  9997,2 52661  53.2182 335.7152 0001619  91.3745 268.7432 15.08839968 83870,6917.88,95.438,540.865,538.625,0.0
52661.0,STARLINK-4042,PAYLOAD,2023-11-18 18:32:29,15.08842716,0.0001606,53.2182,333.634,91.7565,268.3611,0.00012081,1.635e-05,0.0,0 STARLINK-4042,1 52661U 22053F   23322.77256073  .00001635  00000-0  12081-3 0  9991,2 52661  53.2182 333.6340 0001606  91.7565 268.3611 15.08842716 83944,6917.872,95.437,540.848,538.626,0.0
52661.0,STARLINK-4042,PAYLOAD,2023-11-19 04:04:47,15.08846743,0.0001592,53.2179,331.8494,91.0363,269.0812,0.000129,1.766e-05,0.0,0 STARLINK-4042,1 52661U 22053F   23323.16999748  .00001766  00000-0  12900-3 0  9993,2 52661  53.2179 331.8494 0001592  91.0363 269.0812 15.08846743 84006,6917.86,95.437,540.826,538.623,0.0
52661.0,STARLINK-4042,PAYLOAD,2023-11-19 07:15:33,15.08849976,0.0001569,53.2185,331.2545,92.5535,267.5636,0.00011807,1.592e-05,0.0,0 STARLINK-4042,1 52661U 22053F   23323.30247458  .00001592  00000-0  11807-3 0  9995,2 52661  53.2185 331.2545 0001569  92.5535 267.5636 15.08849976 84025,6917.85,95.437,540.8,538.629,0.0
52661.0,STARLINK-4042,PAYLOAD,2023-11-20 03:55:34,15.08841495,0.0001565,53.2183,327.3881,93.1516,266.9655,7.9996e-05,9.85e-06,0.0,0 STARLINK-4042,1 52661U 22053F   23324.16359842  .00000985  00000-0  79996-4 0  9990,2 52661  53.2183 327.3881 0001565  93.1516 266.9655 15.08841495 84150,6917.876,95.437,540.823,538.658,0.0
52661.0,STARLINK-4042,PAYLOAD,2023-11-20 11:52:30,15.08848296,0.0001596,53.2186,325.9011,94.2095,265.9079,0.00012561,1.712e-05,0.0,0 STARLINK-4042,1 52661U 22053F   23324.49479284  .00001712  00000-0  12561-3 0  9992,2 52661  53.2186 325.9011 0001596  94.2095 265.9079 15.08848296 84201,6917.855,95.437,540.824,538.616,0.0
52661.0,STARLINK-4042,PAYLOAD,2023-11-21 03:46:22,15.08835906,0.0001178,53.2195,322.9283,110.4433,249.6686,-2.0288e-05,-6.11e-06,0.0,0 STARLINK-4042,1 52661U 22053F   23325.15720208 -.00000611  00000-0 -20288-4 0  9996,2 52661  53.2195 322.9283 0001178 110.4433 249.6686 15.08835906 84300,6917.893,95.438,540.573,538.943,0.0
52661.0,STARLINK-4042,PAYLOAD,2023-11-21 06:57:09,15.08829434,0.0001492,53.2187,322.3326,99.7913,260.3248,-8.9436e-05,-1.711e-05,0.0,0 STARLINK-4042,1 52661U 22053F   23325.28968949 -.00001711  00000-0 -89436-4 0  9998,2 52661  53.2187 322.3326 0001492  99.7913 260.3248 15.08829434 84329,6917.913,95.438,540.81,538.746,0.0
52661.0,STARLINK-4042,PAYLOAD,2023-11-21 11:43:18,15.08834142,0.0001577,53.2191,321.4408,100.3405,259.7765,-2.9178e-05,-7.52e-06,0.0,0 STARLINK-4042,1 52661U 22053F   23325.48840636 -.00000752  00000-0 -29178-4 0  9993,2 52661  53.2191 321.4408 0001577 100.3405 259.7765 15.08834142 84355,6917.898,95.438,540.854,538.672,0.0
52661.0,STARLINK-4042,PAYLOAD,2023-11-22 03:37:07,15.08857533,0.0001467,53.2189,318.4672,99.2505,260.8653,0.00018227,2.615e-05,0.0,0 STARLINK-4042,1 52661U 22053F   23326.15078647  .00002615  00000-0  18227-3 0  9993,2 52661  53.2189 318.4672 0001467  99.2505 260.8653 15.08857533 84455,6917.827,95.436,540.707,538.677,0.0
